{"type":"FeatureCollection","source":{"title":"HydroRIVERS v1.0 — Taiwan main stems","url":"https://www.hydrosheds.org/products/hydrorivers","license":"HydroSHEDS version 1 License Agreement","license_url":"https://data.hydrosheds.org/file/technical-documentation/HydroSHEDS_TechDoc_v1_4.pdf","citation":"Lehner, B., Grill G. (2013). Hydrological Processes 27(15), 2171–2186. doi:10.1002/hyp.9740","prepared":"2026-09-04","shp_sha256":"827e03a8e419b9578d5f246bcce1c93de1a0bd561a9f572fe84606c5d36d31fa","selection":"Island basins intersecting the local coastline buffered by 0.03 degrees; ORD_CLAS 1; whole main-stem length at least 40 km","minimum_main_stem_km":40,"reach_count":685,"basin_count":23},"features":[{"type":"Feature","properties":{"order":1},"geometry":{"type":"MultiLineString","coordinates":[[[120.8125,23.48958],[120.80625,23.48958],[120.80208,23.48542],[120.78542,23.48542],[120.78125,23.48125],[120.76875,23.48125],[120.75625,23.46875],[120.75625,23.46458],[120.75208,23.46042],[120.74792,23.46042],[120.74375,23.45625],[120.73542,23.44792],[120.71458,23.44792],[120.70208,23.44792],[120.69792,23.44792],[120.69375,23.44375],[120.69375,23.43958],[120.68542,23.43125],[120.68542,23.42708],[120.67708,23.41875],[120.67708,23.40625],[120.68125,23.40208],[120.68125,23.38125],[120.67708,23.38125],[120.66875,23.37292],[120.66875,23.36458],[120.66875,23.35625],[120.67292,23.35208],[120.67292,23.34792],[120.67708,23.34375],[120.67292,23.33958],[120.67292,23.33542],[120.66875,23.33125],[120.66458,23.32708],[120.66875,23.32292],[120.66875,23.31458],[120.66875,23.31042],[120.66042,23.30208],[120.66042,23.29792],[120.65625,23.29375],[120.65208,23.29375],[120.64792,23.29792],[120.63958,23.29792],[120.63542,23.30208],[120.63125,23.30208],[120.62708,23.30625],[120.62292,23.30625],[120.61875,23.30625],[120.61458,23.31042],[120.59792,23.31042],[120.59375,23.31042],[120.58958,23.30625],[120.58125,23.29792],[120.57708,23.29792],[120.57708,23.28542],[120.57292,23.28125],[120.56875,23.27708],[120.56875,23.27292],[120.56042,23.26458],[120.55625,23.26042],[120.55625,23.25625],[120.55208,23.25208],[120.54792,23.25208],[120.54375,23.24792],[120.53125,23.24792],[120.52708,23.24375],[120.52292,23.24375],[120.51458,23.23542],[120.51042,23.23542],[120.49375,23.21875],[120.49375,23.21458],[120.49792,23.21042],[120.49792,23.20625],[120.49792,23.19792],[120.49375,23.19375],[120.48958,23.19375],[120.48125,23.18542],[120.47708,23.18125],[120.47708,23.17708],[120.48125,23.17292],[120.47292,23.16458],[120.47708,23.16042],[120.47708,23.14792],[120.46875,23.13958],[120.46458,23.14375],[120.46042,23.14375],[120.45208,23.13542],[120.45208,23.12292],[120.44792,23.11875],[120.44375,23.11875],[120.43958,23.11458],[120.43542,23.11875],[120.43542,23.13542],[120.43125,23.13958],[120.42292,23.13958],[120.41875,23.13542],[120.41458,23.13542],[120.41042,23.13958],[120.41042,23.14375],[120.40625,23.14792],[120.40208,23.14792],[120.39792,23.14375],[120.39792,23.13542],[120.39375,23.13125],[120.38958,23.13125],[120.38542,23.12708],[120.38125,23.12292],[120.38125,23.11458],[120.38542,23.11042],[120.38542,23.10625],[120.38125,23.10208],[120.36875,23.10208],[120.36458,23.10208],[120.35208,23.11458],[120.34792,23.11875],[120.34792,23.12292],[120.34375,23.12708],[120.34375,23.13125],[120.33958,23.13542],[120.34375,23.13958],[120.34375,23.15208],[120.33958,23.15625],[120.33542,23.15625],[120.33125,23.16042],[120.32708,23.16042],[120.32292,23.16458],[120.31458,23.16458],[120.30625,23.16458],[120.30208,23.16042],[120.29375,23.16875],[120.26458,23.16875],[120.26042,23.16875],[120.25625,23.16458],[120.25625,23.16042],[120.25208,23.15625],[120.25208,23.13958],[120.24792,23.13542],[120.23958,23.12708],[120.23125,23.12708],[120.22292,23.11875],[120.21875,23.11875],[120.21042,23.11042],[120.20625,23.11042],[120.20208,23.10625],[120.19792,23.10625],[120.19375,23.10208],[120.18958,23.10208],[120.18125,23.09375],[120.17708,23.09375],[120.17292,23.09375],[120.16875,23.08958],[120.16042,23.08958],[120.15208,23.08958],[120.14375,23.08125],[120.14375,23.07708],[120.13958,23.07708],[120.13125,23.07708],[120.12708,23.07292],[120.10625,23.07292],[120.09792,23.08125],[120.08125,23.06458],[120.06875,23.05208]],[[120.52917,23.33958],[120.52292,23.33958],[120.51875,23.34375],[120.50208,23.34375],[120.48542,23.34375],[120.47292,23.35625],[120.46458,23.35625],[120.45625,23.36458],[120.45208,23.36042],[120.44792,23.36042],[120.44375,23.35625],[120.43958,23.35625],[120.43125,23.34792],[120.42292,23.34792],[120.41458,23.33958],[120.41042,23.33958],[120.40625,23.33542],[120.40208,23.33542],[120.39792,23.33958],[120.39375,23.33542],[120.38542,23.33542],[120.36875,23.31875],[120.36458,23.32292],[120.36042,23.32292],[120.35208,23.31458],[120.34792,23.31458],[120.34375,23.31042],[120.33958,23.31042],[120.33542,23.30625],[120.33125,23.30625],[120.32708,23.30208],[120.31875,23.29375],[120.31458,23.29792],[120.30625,23.29792],[120.29375,23.28542],[120.29375,23.28125],[120.28125,23.26875],[120.28125,23.26458],[120.27708,23.26042],[120.26042,23.26042],[120.25625,23.25625],[120.22292,23.25625],[120.21875,23.25208],[120.20625,23.25208],[120.20208,23.25208],[120.19792,23.25625],[120.19375,23.25625],[120.18958,23.26042],[120.18125,23.26042],[120.17292,23.26875],[120.16875,23.26875],[120.16458,23.27292],[120.16042,23.27292],[120.15208,23.28125],[120.14375,23.28125],[120.13958,23.28542],[120.13542,23.28958],[120.13125,23.28958],[120.12708,23.29375],[120.11458,23.29375],[120.11042,23.29792]],[[120.69583,23.49583],[120.68125,23.48125],[120.67708,23.47708],[120.67708,23.47292],[120.66875,23.46458],[120.65208,23.46458],[120.64792,23.46875],[120.64375,23.46875],[120.63542,23.46875],[120.62708,23.46042],[120.62292,23.46042],[120.61875,23.45625],[120.61875,23.44375],[120.61458,23.43958],[120.60625,23.43958],[120.59375,23.43958],[120.58958,23.44375],[120.57708,23.44375],[120.57292,23.44792],[120.56042,23.44792],[120.55625,23.45208],[120.51042,23.45208],[120.49375,23.45208],[120.48958,23.45625],[120.48542,23.45625],[120.48125,23.46042],[120.46042,23.46042],[120.45208,23.45208],[120.45208,23.44375],[120.44792,23.43958],[120.44792,23.43542],[120.44375,23.43542],[120.43958,23.43125],[120.42708,23.43125],[120.42292,23.42708],[120.41875,23.42708],[120.41458,23.42292],[120.41042,23.42292],[120.40625,23.41875],[120.40625,23.41458],[120.40208,23.41042],[120.39792,23.41042],[120.39375,23.40625],[120.38125,23.40625],[120.37708,23.40208],[120.34792,23.40208],[120.34375,23.39792],[120.33958,23.39792],[120.33542,23.39375],[120.33125,23.39375],[120.32708,23.38958],[120.31875,23.38125],[120.31458,23.38125],[120.31042,23.37708],[120.30625,23.37708],[120.30208,23.37708],[120.29792,23.37292],[120.29375,23.37292],[120.28958,23.37292],[120.28125,23.36458],[120.27708,23.36458],[120.26458,23.35208],[120.26042,23.35625],[120.25625,23.35208],[120.25208,23.35208],[120.24375,23.34375],[120.23958,23.34375],[120.22708,23.33125],[120.22292,23.33125],[120.21875,23.32708],[120.20625,23.32708],[120.20208,23.32292],[120.17292,23.32292],[120.16875,23.32708],[120.16042,23.32708],[120.15625,23.33125],[120.13542,23.33125],[120.12708,23.33958]],[[120.61875,23.64583],[120.61875,23.65208],[120.61042,23.66042],[120.60625,23.66042],[120.59375,23.67292],[120.59375,23.67708],[120.58958,23.68125],[120.58125,23.68958],[120.58125,23.69375],[120.57708,23.69792],[120.57708,23.70625],[120.57292,23.71042],[120.57292,23.71875],[120.56875,23.72292],[120.56042,23.72292],[120.55625,23.72708],[120.53125,23.72708],[120.52708,23.73125],[120.50625,23.73125],[120.49792,23.72292],[120.49792,23.71875],[120.49375,23.71458],[120.48958,23.71458],[120.48125,23.70625],[120.47708,23.70208],[120.46042,23.70208],[120.45625,23.69792],[120.44792,23.69792],[120.43125,23.69792],[120.41875,23.68542],[120.41875,23.68125],[120.38958,23.65208],[120.38958,23.64792],[120.38125,23.63958],[120.37708,23.63958],[120.37292,23.63542],[120.37292,23.61458],[120.36875,23.61042],[120.36875,23.60625],[120.36458,23.60208],[120.35625,23.60208],[120.35208,23.60625],[120.34375,23.60625],[120.31875,23.60625],[120.28958,23.60625],[120.28542,23.60208],[120.28125,23.60208],[120.27708,23.60625],[120.24792,23.60625],[120.24375,23.60208],[120.24375,23.59792],[120.23958,23.59792],[120.23125,23.59792],[120.22292,23.58958],[120.21875,23.58958],[120.21458,23.58542],[120.21042,23.58125],[120.19375,23.58125],[120.18958,23.57708],[120.18542,23.57708],[120.17292,23.56458],[120.16875,23.56458],[120.16042,23.55625],[120.15625,23.55625],[120.14375,23.54375]],[[120.46458,22.98333],[120.46458,22.96458],[120.46875,22.96042],[120.46458,22.95625],[120.46458,22.95208],[120.47292,22.94375],[120.46458,22.93542],[120.46458,22.93125],[120.46458,22.92708],[120.46042,22.92292],[120.46042,22.91875],[120.45208,22.91042],[120.44792,22.91042],[120.44375,22.90625],[120.43542,22.90625],[120.42708,22.91458],[120.41875,22.91458],[120.41458,22.91042],[120.41042,22.91042],[120.40625,22.90625],[120.40625,22.90208],[120.40208,22.90208],[120.39375,22.89375],[120.39792,22.88958],[120.39375,22.88542],[120.39375,22.88125],[120.38958,22.87708],[120.38542,22.87708],[120.38125,22.87292],[120.37708,22.87292],[120.37292,22.86875],[120.36875,22.86875],[120.36458,22.87292],[120.35625,22.88125],[120.35625,22.88542],[120.35208,22.88958],[120.33958,22.88958],[120.33542,22.89375],[120.32708,22.89375],[120.32292,22.89792],[120.30625,22.89792],[120.30208,22.90208],[120.28125,22.90208],[120.27708,22.89792],[120.24792,22.89792],[120.24375,22.90208],[120.23958,22.90208],[120.23542,22.90625],[120.22292,22.90625],[120.21875,22.91042],[120.21458,22.91042],[120.21042,22.91458],[120.20625,22.91458],[120.20208,22.91875],[120.18125,22.91875],[120.17708,22.91458]],[[120.63333,23.50625],[120.61875,23.50625],[120.61458,23.51042],[120.60625,23.51042],[120.60208,23.51458],[120.59792,23.51458],[120.59375,23.51875],[120.58125,23.51875],[120.57708,23.52292],[120.56458,23.52292],[120.56042,23.52708],[120.55208,23.52708],[120.53125,23.50625],[120.52708,23.50625],[120.52292,23.50208],[120.52292,23.49792],[120.51875,23.49792],[120.51458,23.49375],[120.51042,23.49375],[120.49792,23.50625],[120.48125,23.50625],[120.47292,23.50625],[120.46875,23.50208],[120.45625,23.51458],[120.43542,23.51458],[120.43125,23.51042],[120.42708,23.51042],[120.42292,23.50625],[120.41875,23.50625],[120.41458,23.51042],[120.41042,23.50625],[120.40625,23.51042],[120.39792,23.51042],[120.39375,23.50625],[120.38542,23.51458],[120.38125,23.51042],[120.37708,23.51042],[120.37292,23.50625],[120.36458,23.51458],[120.35625,23.51458],[120.34792,23.50625],[120.32292,23.50625],[120.31875,23.51042],[120.31042,23.51042],[120.30625,23.50625],[120.30625,23.50208],[120.30208,23.49792],[120.30208,23.49375],[120.29792,23.48958],[120.29792,23.48542],[120.29375,23.48125],[120.28958,23.48125],[120.28542,23.48542],[120.28542,23.48958],[120.28125,23.49375],[120.27292,23.49375],[120.26458,23.48542],[120.26042,23.48542],[120.25625,23.48125],[120.25625,23.47708],[120.25208,23.47292],[120.23958,23.47292],[120.23542,23.46875],[120.23125,23.46875],[120.22292,23.47708],[120.21458,23.47708],[120.21042,23.48125],[120.19792,23.48125],[120.18542,23.46875],[120.18125,23.46875],[120.17708,23.46458],[120.17708,23.46042]],[[121.2875,24.12083],[121.29792,24.11042],[121.29792,24.09792],[121.29375,24.09375],[121.26875,24.09375],[121.26458,24.09375],[121.26042,24.08958],[121.25625,24.08958],[121.24792,24.08958],[121.24375,24.09375],[121.23958,24.09375],[121.22708,24.09375],[121.22292,24.08958],[121.21875,24.08958],[121.21042,24.08125],[121.20208,24.08125],[121.19792,24.07708],[121.19375,24.07292],[121.19375,24.06458],[121.18958,24.06042],[121.18958,24.05208],[121.17708,24.03958],[121.17292,24.03958],[121.17292,24.02708],[121.16458,24.02708],[121.15625,24.01875],[121.15208,24.01875],[121.14792,24.02292],[121.14375,24.02292],[121.13958,24.01875],[121.13958,23.98958],[121.13958,23.98125],[121.12708,23.96875],[121.11875,23.96875],[121.11458,23.97292],[121.09792,23.97292],[121.09375,23.96875],[121.08958,23.96875],[121.08125,23.96042],[121.07708,23.96042],[121.07292,23.95625],[121.07292,23.93542],[121.06875,23.93125],[121.06875,23.92708],[121.06042,23.91875],[121.05208,23.91875],[121.04792,23.91458],[121.04375,23.91042],[121.04375,23.90625],[121.04375,23.89792],[121.04792,23.89375],[121.04792,23.88958],[121.04375,23.88958],[121.04792,23.88542],[121.04375,23.88125],[121.04375,23.87292],[121.03958,23.86875],[121.03958,23.86458],[121.03958,23.85625],[121.03958,23.84792],[121.03542,23.84375],[121.03542,23.83542],[121.03542,23.83125],[121.03125,23.82708],[121.03125,23.82292],[121.03542,23.81875],[121.03542,23.81458],[121.03542,23.81042],[121.03125,23.80625],[121.01458,23.80625],[121.01042,23.80208],[121.01042,23.78958],[121.00625,23.78542],[121.00208,23.78542],[120.99792,23.78958],[120.99375,23.78958],[120.98542,23.79792],[120.98125,23.79792],[120.97708,23.79375],[120.97292,23.79792],[120.96458,23.78958],[120.96042,23.79375],[120.95625,23.78958],[120.95208,23.78958],[120.93958,23.78958],[120.93542,23.78958],[120.93125,23.78542],[120.92708,23.78958],[120.92292,23.78958],[120.91875,23.79375],[120.91458,23.79375],[120.90625,23.78542],[120.90208,23.78542],[120.87708,23.78542],[120.87292,23.78125],[120.86875,23.78125],[120.86875,23.78542],[120.86458,23.78958],[120.85625,23.78958],[120.84792,23.79792],[120.84792,23.80208],[120.84375,23.80625],[120.84375,23.81042],[120.83958,23.81458],[120.83542,23.81458],[120.83125,23.81875],[120.83125,23.82292],[120.82292,23.82292],[120.81875,23.81875],[120.81042,23.81875],[120.80625,23.81458],[120.78958,23.81458],[120.78542,23.81875],[120.78125,23.81875],[120.76875,23.81875],[120.75208,23.81875],[120.74792,23.82292],[120.73958,23.82292],[120.73542,23.82708],[120.71875,23.82708],[120.71458,23.82292],[120.68958,23.79792],[120.68958,23.79375],[120.68542,23.78958],[120.67708,23.78125],[120.67292,23.78125],[120.66875,23.78125],[120.66458,23.78542],[120.64375,23.78542],[120.61875,23.78542],[120.61458,23.78958],[120.61042,23.78958],[120.59792,23.78958],[120.58958,23.79792],[120.58125,23.79792],[120.57708,23.80208],[120.56875,23.79375],[120.56042,23.79375],[120.55625,23.79792],[120.55208,23.79792],[120.54792,23.80208],[120.53542,23.80208],[120.53125,23.79792],[120.52708,23.79792],[120.51875,23.80625],[120.51458,23.80208],[120.50625,23.80208],[120.50208,23.80625],[120.48958,23.80625],[120.48125,23.80625],[120.47708,23.81042],[120.47292,23.81042],[120.46875,23.81458],[120.46042,23.81458],[120.45625,23.81875],[120.45208,23.81875],[120.44375,23.81875],[120.43542,23.82708],[120.43125,23.82708],[120.41875,23.82708],[120.41042,23.83542],[120.39375,23.83542],[120.38542,23.83542],[120.37708,23.82708],[120.36875,23.82708],[120.36458,23.83125],[120.36042,23.83125],[120.35625,23.82708],[120.35208,23.82708],[120.34792,23.82708],[120.34375,23.82292],[120.32292,23.82292],[120.31875,23.82292],[120.30625,23.82292],[120.29792,23.83125],[120.28958,23.83125],[120.27708,23.83125]],[[120.6,23.85],[120.59375,23.85625],[120.59375,23.86458],[120.59792,23.86875],[120.59792,23.87708],[120.58958,23.88542],[120.58542,23.88542],[120.56875,23.90208],[120.56875,23.91042],[120.56458,23.91458],[120.56042,23.91458],[120.55625,23.91875],[120.55625,23.92708],[120.56042,23.93125],[120.56458,23.93125],[120.57292,23.93958],[120.57292,23.94375],[120.56042,23.95625],[120.55208,23.95625],[120.54375,23.96458],[120.53542,23.96458],[120.53125,23.96875],[120.52292,23.96875],[120.51875,23.97292],[120.51875,23.97708],[120.52292,23.98125],[120.52292,23.98542],[120.51458,23.99375],[120.51042,23.99375],[120.50625,23.98958],[120.50208,23.99375],[120.49792,23.99375],[120.49375,23.99792],[120.49375,24.00625],[120.48958,24.01042],[120.48542,24.01042],[120.48125,24.01458],[120.48125,24.01875],[120.47708,24.02292],[120.46875,24.03125],[120.46458,24.03125],[120.46042,24.03542],[120.45625,24.03542],[120.45208,24.03958],[120.45208,24.04792],[120.45625,24.05208],[120.45625,24.06042],[120.45208,24.06458],[120.45208,24.07292],[120.43542,24.08958],[120.43542,24.09375],[120.42292,24.09375],[120.41458,24.09375]],[[120.975,23.48542],[120.99375,23.48542],[121.00208,23.47708],[120.99792,23.47292],[121.00625,23.46458],[121.00625,23.46042],[121.00208,23.45625],[120.99792,23.45208],[120.99792,23.43958],[120.99375,23.43542],[120.99375,23.43125],[120.98958,23.42708],[120.98958,23.42292],[120.99375,23.41875],[120.98542,23.41042],[120.97292,23.39792],[120.97292,23.38958],[120.96458,23.38958],[120.96042,23.38542],[120.93542,23.38542],[120.93125,23.38125],[120.92708,23.37708],[120.92292,23.37292],[120.91875,23.36875],[120.91875,23.36042],[120.91458,23.35625],[120.91458,23.34375],[120.91875,23.33958],[120.91875,23.33542],[120.92292,23.33125],[120.92292,23.32708],[120.91875,23.32292],[120.91875,23.31875],[120.91458,23.31458],[120.91458,23.30625],[120.91042,23.30208],[120.90625,23.30208],[120.90208,23.30208],[120.89792,23.29792],[120.89375,23.30208],[120.88542,23.30208],[120.88125,23.29792],[120.87708,23.29792],[120.87292,23.29375],[120.86042,23.29375],[120.85625,23.29792],[120.84792,23.29792],[120.84375,23.29375],[120.83958,23.29375],[120.83125,23.28542],[120.82708,23.28125],[120.82708,23.27708],[120.82292,23.27292],[120.82292,23.26875],[120.81875,23.26458],[120.81875,23.25208],[120.81042,23.24375],[120.81042,23.23125],[120.80625,23.22708],[120.80208,23.22292],[120.80208,23.21875],[120.80625,23.21458],[120.80625,23.21042],[120.80208,23.20625],[120.79792,23.20625],[120.79375,23.20208],[120.79375,23.19792],[120.78958,23.19375],[120.78542,23.18958],[120.78125,23.18958],[120.77708,23.18542],[120.77708,23.17708],[120.77292,23.17292],[120.77292,23.16875],[120.77708,23.16458],[120.76875,23.15625],[120.76458,23.15625],[120.74792,23.13958],[120.74375,23.13958],[120.73958,23.13542],[120.73125,23.13542],[120.72292,23.12708],[120.71875,23.12708],[120.71875,23.12292],[120.71458,23.11875],[120.71458,23.11458],[120.71042,23.11042],[120.70625,23.11042],[120.70208,23.11458],[120.69792,23.11042],[120.69792,23.10625],[120.69375,23.10208],[120.68958,23.09792],[120.68958,23.09375],[120.69375,23.08958],[120.69375,23.08542],[120.68542,23.07708],[120.68542,23.06875],[120.67708,23.06042],[120.67292,23.06042],[120.66875,23.05625],[120.67292,23.05208],[120.66875,23.04792],[120.66458,23.04792],[120.66042,23.04375],[120.66042,23.03542],[120.66042,23.03125],[120.66458,23.02708],[120.66042,23.02292],[120.66458,23.01875],[120.66458,23.01458],[120.65625,23.00625],[120.65208,23.00625],[120.64792,23.01042],[120.63958,23.00208],[120.63542,22.99792],[120.64375,22.98958],[120.64375,22.98125],[120.64792,22.97708],[120.64792,22.96458],[120.64375,22.96042],[120.64375,22.93958],[120.65208,22.93125],[120.65208,22.92708],[120.64792,22.92292],[120.64792,22.91875],[120.64375,22.91458],[120.64375,22.90208],[120.63958,22.89792],[120.63958,22.88542],[120.63958,22.88125],[120.63542,22.87708],[120.63125,22.87708],[120.62292,22.86875],[120.61875,22.86875],[120.61042,22.86042],[120.59792,22.86042],[120.58958,22.85208],[120.58958,22.84792],[120.58542,22.84375],[120.58125,22.84375],[120.57292,22.83542],[120.56458,22.83542],[120.55625,22.82708],[120.55208,22.82708],[120.53958,22.81458],[120.53958,22.81042],[120.53542,22.80625],[120.52292,22.80625],[120.51875,22.80208],[120.51458,22.80208],[120.51042,22.79792],[120.50625,22.79375],[120.49375,22.79375],[120.48958,22.78958],[120.47292,22.78958],[120.46875,22.78542],[120.46458,22.78542],[120.46042,22.78125],[120.45208,22.77292],[120.45208,22.76875],[120.45208,22.75625],[120.45208,22.75208],[120.45625,22.74792],[120.45625,22.73958],[120.45625,22.73542],[120.46042,22.73125],[120.46042,22.72292],[120.45625,22.71875],[120.45625,22.71458],[120.45625,22.70208],[120.43958,22.68542],[120.43958,22.68125],[120.43958,22.67292],[120.43542,22.66875],[120.43542,22.66042],[120.43958,22.65625],[120.43958,22.64792],[120.44375,22.64375],[120.44375,22.63958],[120.43958,22.63542],[120.43958,22.63125],[120.43542,22.62708],[120.43542,22.62292],[120.43125,22.61875],[120.43542,22.61458],[120.43542,22.60625],[120.43958,22.60208],[120.43958,22.59375],[120.43958,22.57292],[120.43958,22.55208],[120.44375,22.54792],[120.43542,22.53958],[120.42708,22.53958],[120.42292,22.53542],[120.41875,22.53125],[120.42292,22.52708],[120.42292,22.52292]],[[121.2125,24.2125],[121.20625,24.20625],[121.20625,24.20208],[121.20208,24.19792],[121.20208,24.19375],[121.19792,24.18958],[121.19792,24.18542],[121.18958,24.17708],[121.18958,24.17292],[121.18125,24.16458],[121.18125,24.16042],[121.18125,24.14792],[121.17708,24.14375],[121.17292,24.13958],[121.16458,24.13125],[121.16458,24.12708],[121.16042,24.12292],[121.15208,24.11458],[121.13958,24.11458],[121.11875,24.11458],[121.11042,24.10625],[121.10625,24.10625],[121.10208,24.10208],[121.10208,24.09792],[121.09792,24.09375],[121.09375,24.09375],[121.08958,24.08958],[121.08125,24.09792],[121.07708,24.09792],[121.07292,24.10208],[121.06458,24.10208],[121.06042,24.09792],[121.05625,24.09792],[121.05208,24.10208],[121.04792,24.09792],[121.03958,24.09792],[121.03125,24.09792],[121.01458,24.08125],[121.01042,24.08125],[121.00208,24.08125],[120.99792,24.07708],[120.99375,24.08125],[120.98958,24.08125],[120.98542,24.08125],[120.97708,24.07292],[120.97292,24.07292],[120.96458,24.06458],[120.94792,24.06458],[120.93958,24.06458],[120.93542,24.06042],[120.92292,24.06042],[120.90625,24.06042],[120.90208,24.05625],[120.89792,24.06042],[120.89375,24.06042],[120.88542,24.05208],[120.88542,24.04792],[120.88125,24.04375],[120.86458,24.04375],[120.86042,24.04792],[120.85625,24.04792],[120.85208,24.04375],[120.84792,24.03958],[120.84792,24.03125],[120.84375,24.02708],[120.83958,24.03125],[120.83542,24.02708],[120.82292,24.02708],[120.81875,24.02292],[120.81458,24.01875],[120.81458,24.01458],[120.81042,24.01042],[120.81042,24.00208],[120.80625,23.99792],[120.80625,23.99375],[120.80208,23.98958],[120.78958,23.98958],[120.78542,23.98542],[120.78125,23.98542],[120.77708,23.98125],[120.77292,23.98125],[120.76042,23.98125],[120.74792,23.99375],[120.74792,24.00208],[120.74375,24.00625],[120.73958,24.00625],[120.73542,24.01042],[120.73125,24.00625],[120.72708,24.01042],[120.68958,24.01042],[120.68542,24.01458],[120.67708,24.01458],[120.66875,24.02292],[120.66458,24.02292],[120.65625,24.03125],[120.64375,24.04375],[120.64375,24.04792],[120.63125,24.06042],[120.62708,24.06458],[120.62708,24.06875],[120.62292,24.07292],[120.62292,24.07708],[120.61875,24.08125],[120.61875,24.09375],[120.61042,24.10208],[120.59375,24.10208],[120.58958,24.10625],[120.58542,24.10625],[120.58125,24.10625],[120.57708,24.11042],[120.57292,24.10625],[120.56875,24.11042],[120.56042,24.11042],[120.55625,24.11458],[120.55208,24.11458],[120.54792,24.11875],[120.54375,24.11875],[120.53958,24.12292],[120.53958,24.13125],[120.53125,24.13958],[120.52708,24.14375]],[[121.2625,24.15833],[121.26875,24.16458],[121.26875,24.16875],[121.26042,24.16875],[121.25625,24.16458],[121.24375,24.16458],[121.23958,24.16875],[121.23542,24.16875],[121.23125,24.17292],[121.23125,24.18542],[121.23958,24.19375],[121.24375,24.19375],[121.24792,24.19792],[121.24375,24.20208],[121.24375,24.21042],[121.24792,24.21042],[121.25208,24.21458],[121.25625,24.21458],[121.26042,24.21042],[121.26458,24.21042],[121.26458,24.22292],[121.25625,24.23125],[121.26042,24.23542],[121.26042,24.24375],[121.26042,24.24792],[121.26458,24.25208],[121.26875,24.25208],[121.27292,24.25625],[121.26875,24.26042],[121.26875,24.26458],[121.27292,24.26875],[121.26875,24.27292],[121.27292,24.27708],[121.27708,24.28125],[121.27708,24.28542],[121.28125,24.28958],[121.28125,24.29792],[121.26875,24.29792],[121.26042,24.28958],[121.26042,24.28542],[121.25625,24.28125],[121.25625,24.27708],[121.24792,24.26875],[121.24375,24.27292],[121.23958,24.27292],[121.23542,24.26875],[121.22708,24.26875],[121.22292,24.26458],[121.21875,24.26458],[121.21042,24.26458],[121.20208,24.26458],[121.18125,24.26458],[121.17708,24.26042],[121.17292,24.26042],[121.16875,24.25625],[121.16458,24.25625],[121.16042,24.25208],[121.13125,24.25208],[121.12708,24.24792],[121.12292,24.24375],[121.12292,24.23958],[121.11875,24.23958],[121.11458,24.24375],[121.11042,24.24375],[121.10625,24.24792],[121.10208,24.24792],[121.09792,24.24375],[121.09375,24.23958],[121.08958,24.23958],[121.08125,24.23958],[121.07292,24.23125],[121.06875,24.23125],[121.06042,24.23125],[121.05625,24.22708],[121.04375,24.22708],[121.03958,24.22292],[121.03958,24.21875],[121.03542,24.21875],[121.03125,24.21458],[121.02708,24.21042],[121.02292,24.21458],[121.01875,24.21042],[121.01458,24.21042],[121.01042,24.20625],[121.00625,24.20625],[120.99375,24.19375],[120.99375,24.18958],[120.98958,24.18542],[120.98542,24.18542],[120.98125,24.18125],[120.97292,24.17292],[120.96458,24.17292],[120.96042,24.16875],[120.95625,24.16875],[120.95208,24.16875],[120.94792,24.16458],[120.93958,24.17292],[120.93125,24.17292],[120.92708,24.17708],[120.92708,24.18125],[120.92292,24.18542],[120.91875,24.18542],[120.91458,24.18125],[120.91042,24.17708],[120.91042,24.17292],[120.90208,24.16458],[120.89792,24.16458],[120.89375,24.16875],[120.88125,24.16875],[120.87708,24.16875],[120.87292,24.16458],[120.86458,24.16458],[120.85625,24.15625],[120.85208,24.16042],[120.84792,24.16042],[120.83958,24.16875],[120.83958,24.17292],[120.83542,24.17708],[120.83542,24.18542],[120.83125,24.18958],[120.83125,24.19375],[120.83125,24.19792],[120.83542,24.20208],[120.83125,24.20625],[120.83125,24.21042],[120.82708,24.21458],[120.82708,24.22292],[120.82292,24.22708],[120.82292,24.23958],[120.82708,24.24375],[120.82292,24.24792],[120.82292,24.26042],[120.81875,24.26458],[120.81875,24.26875],[120.81042,24.27708],[120.80625,24.28125],[120.79375,24.28125],[120.78958,24.28542],[120.78542,24.28542],[120.78125,24.28125],[120.77292,24.28125],[120.73958,24.28125],[120.73542,24.28542],[120.73125,24.28125],[120.72708,24.28542],[120.72292,24.28125],[120.71458,24.28125],[120.71042,24.28542],[120.70208,24.28542],[120.66875,24.28542],[120.66458,24.28958],[120.66042,24.28958],[120.65625,24.28958],[120.64375,24.30208],[120.63542,24.30208],[120.63125,24.30625],[120.62292,24.31458],[120.60625,24.31458],[120.60208,24.31875],[120.59375,24.31875],[120.58542,24.32708],[120.57292,24.32708],[120.56875,24.33125],[120.56458,24.33125],[120.56042,24.32708],[120.55208,24.32708]],[[121.23333,24.45417],[121.22708,24.44792],[121.22708,24.44375],[121.22292,24.43958],[121.21042,24.43958],[121.20625,24.43542],[121.20208,24.43542],[121.19792,24.43542],[121.19375,24.43125],[121.17292,24.43125],[121.16875,24.42708],[121.16458,24.42708],[121.16042,24.42292],[121.14792,24.42292],[121.14375,24.41875],[121.13958,24.41875],[121.13125,24.41875],[121.12292,24.41875],[121.11875,24.42292],[121.11875,24.43958],[121.11458,24.44375],[121.10625,24.44375],[121.09792,24.43542],[121.09792,24.43125],[121.08958,24.42292],[121.08542,24.42292],[121.08125,24.41875],[121.06458,24.41875],[121.05208,24.41875],[121.04792,24.41458],[121.04375,24.41458],[121.03958,24.41875],[121.03542,24.41875],[121.02708,24.41042],[121.02708,24.39375],[121.02292,24.39375],[121.01875,24.38958],[120.99792,24.38958],[120.99375,24.38542],[120.98958,24.38542],[120.98542,24.38125],[120.98125,24.38125],[120.97708,24.38542],[120.97292,24.38125],[120.96875,24.38125],[120.96042,24.37292],[120.96042,24.36875],[120.95625,24.36458],[120.95625,24.36042],[120.95208,24.35625],[120.94375,24.35625],[120.94375,24.35208],[120.93542,24.34375],[120.93125,24.34375],[120.92708,24.33958],[120.92292,24.33958],[120.91875,24.33542],[120.91875,24.31042],[120.92292,24.30625],[120.91875,24.30208],[120.91042,24.29375],[120.90208,24.29375],[120.88125,24.29375],[120.87708,24.28958],[120.87292,24.28958],[120.86875,24.29375],[120.86458,24.28958],[120.86042,24.28958],[120.85625,24.28542],[120.84375,24.28542],[120.83958,24.28958],[120.83542,24.28958],[120.80208,24.32292],[120.79792,24.32292],[120.79375,24.32708],[120.78958,24.32292],[120.77708,24.32292],[120.77292,24.31875],[120.76875,24.32292],[120.76458,24.32292],[120.76042,24.32708],[120.75625,24.32708],[120.74792,24.33542],[120.74792,24.33958],[120.74375,24.34375],[120.73958,24.34375],[120.73125,24.35208],[120.72708,24.35208],[120.72292,24.35625],[120.71042,24.35625],[120.70625,24.36042],[120.70208,24.35625],[120.69792,24.35625],[120.69375,24.36042],[120.67292,24.36042],[120.66875,24.36458],[120.66042,24.36458],[120.65625,24.36875],[120.65208,24.36875],[120.64792,24.37292],[120.64375,24.37292],[120.63958,24.37708],[120.63958,24.38125],[120.63125,24.38958],[120.62708,24.38958],[120.62292,24.39375],[120.61875,24.39375],[120.61042,24.40208],[120.60208,24.40208],[120.59375,24.41042]],[[121.0,24.43333],[120.98958,24.42292],[120.98542,24.42292],[120.97292,24.41042],[120.95625,24.41042],[120.95208,24.41458],[120.94375,24.41458],[120.93958,24.41042],[120.93125,24.41042],[120.93125,24.40208],[120.92292,24.39375],[120.91875,24.39375],[120.91458,24.39792],[120.91042,24.39792],[120.90208,24.40625],[120.90208,24.41042],[120.89792,24.41458],[120.89792,24.42292],[120.88958,24.43125],[120.88542,24.43125],[120.88125,24.42708],[120.87708,24.42708],[120.86875,24.41875],[120.86458,24.42292],[120.86458,24.42708],[120.86875,24.43125],[120.86875,24.43542],[120.87292,24.43958],[120.87292,24.45208],[120.87708,24.45625],[120.87708,24.46042],[120.87292,24.46458],[120.86458,24.46458],[120.86042,24.46042],[120.85625,24.46042],[120.85208,24.46458],[120.81875,24.46458],[120.81458,24.46875],[120.79792,24.48542],[120.79792,24.51458],[120.81042,24.52708],[120.81042,24.53125],[120.81458,24.53542],[120.81875,24.53542],[120.82708,24.54375],[120.83542,24.55208],[120.83542,24.55625],[120.83958,24.56042],[120.83958,24.56458],[120.84375,24.56875],[120.84375,24.58125],[120.84375,24.58542],[120.83958,24.58958],[120.83542,24.58958],[120.83125,24.59375],[120.82708,24.59375],[120.82292,24.59792],[120.81875,24.59792],[120.81042,24.59792],[120.80625,24.60208],[120.80208,24.60208],[120.79792,24.60625],[120.78958,24.60625],[120.78542,24.61042],[120.78125,24.61042],[120.77292,24.61042]],[[121.04792,24.51667],[121.04792,24.52708],[121.03958,24.53542],[121.03958,24.53958],[121.04375,24.54375],[121.03542,24.55208],[121.03542,24.56042],[121.03958,24.56458],[121.03958,24.56875],[121.04375,24.57292],[121.04375,24.57708],[121.04792,24.58125],[121.04792,24.59375],[121.04375,24.59792],[121.03958,24.60208],[121.03542,24.59792],[121.01875,24.59792],[120.99792,24.59792],[120.99792,24.60625],[121.00208,24.61042],[121.00208,24.61458],[121.00625,24.61875],[121.00625,24.62708],[121.01042,24.63125],[121.01042,24.63542],[120.99375,24.63542],[120.98958,24.63958],[120.98125,24.63958],[120.97708,24.64375],[120.96042,24.64375],[120.95208,24.65208],[120.95208,24.65625],[120.95625,24.66042],[120.96042,24.66042],[120.96458,24.66458],[120.96458,24.67292],[120.96458,24.67708],[120.96042,24.68125],[120.95625,24.67708],[120.95208,24.67708],[120.94792,24.67292],[120.94375,24.67292],[120.93958,24.67708],[120.93125,24.67708],[120.92708,24.68125],[120.91875,24.68125],[120.91042,24.68125],[120.90625,24.67708],[120.90208,24.67708],[120.89375,24.66875],[120.87708,24.66875],[120.86875,24.66875],[120.86042,24.66875],[120.85208,24.67708],[120.83958,24.66458]],[[120.89167,23.05833],[120.89792,23.06458],[120.91875,23.06458],[120.92292,23.06875],[120.92292,23.07708],[120.92708,23.08125],[120.92708,23.08542],[120.93125,23.08958],[120.93542,23.09375],[120.93958,23.09375],[120.95208,23.10625],[120.95208,23.11042],[120.95625,23.11042],[120.96875,23.09792],[120.97292,23.10208],[120.97708,23.09792],[120.99375,23.09792],[120.99792,23.10208],[121.00625,23.10208],[121.01042,23.10625],[121.01042,23.11458],[121.01458,23.11875],[121.01875,23.12292],[121.02292,23.12292],[121.02708,23.12708],[121.03125,23.12708],[121.03542,23.13125],[121.03958,23.13125],[121.04375,23.12708],[121.04792,23.12708],[121.05208,23.12292],[121.05625,23.12292],[121.06042,23.12708],[121.06458,23.12292],[121.07708,23.12292],[121.08125,23.11875],[121.08958,23.11875],[121.09375,23.11458],[121.10208,23.11458],[121.10625,23.11042],[121.11458,23.11042],[121.11875,23.11458],[121.12292,23.11875],[121.11458,23.12708],[121.12292,23.13542],[121.12708,23.13958],[121.13125,23.13958],[121.13542,23.13542],[121.13958,23.13542],[121.15208,23.13542],[121.15625,23.13125],[121.16042,23.13125],[121.16458,23.12708],[121.17292,23.12708],[121.17708,23.12292],[121.17708,23.11875],[121.18125,23.11458],[121.18542,23.11042],[121.18542,23.09375],[121.19375,23.08542],[121.18542,23.07708],[121.18542,23.07292],[121.18958,23.06875],[121.18958,23.05208],[121.18958,23.04792],[121.18125,23.03958],[121.17708,23.03958],[121.17292,23.03542],[121.16458,23.02708],[121.16458,23.02292],[121.16042,23.01875],[121.16458,23.01458],[121.16042,23.01042],[121.16042,23.00625],[121.16042,22.99375],[121.16458,22.98958],[121.16875,22.98542],[121.16875,22.97292],[121.17292,22.96875],[121.16875,22.96458],[121.16875,22.95625],[121.17292,22.95208],[121.17292,22.93542],[121.16458,22.93542],[121.15625,22.92708],[121.15208,22.92292],[121.15208,22.91458],[121.14792,22.91042],[121.14792,22.89375],[121.14792,22.88542],[121.15208,22.88125],[121.15208,22.86875],[121.14792,22.86458],[121.14792,22.86042],[121.13958,22.85208],[121.13958,22.84375],[121.13125,22.83542],[121.13125,22.83125],[121.12292,22.82292],[121.13125,22.81458],[121.13125,22.81042],[121.14375,22.79792],[121.14375,22.78958],[121.14792,22.78542],[121.14792,22.78125],[121.15625,22.77292],[121.16875,22.77292],[121.17292,22.76875],[121.17708,22.76875]],[[121.1875,24.52083],[121.17708,24.53125],[121.17292,24.53125],[121.16875,24.53542],[121.16458,24.53958],[121.15625,24.54792],[121.15208,24.54792],[121.14792,24.55208],[121.14375,24.54792],[121.13542,24.54792],[121.12292,24.54792],[121.11875,24.55208],[121.11458,24.54792],[121.11042,24.54792],[121.10625,24.55208],[121.10625,24.56458],[121.10208,24.56875],[121.10208,24.57292],[121.10625,24.57708],[121.10625,24.58125],[121.11042,24.58542],[121.11042,24.59375],[121.11458,24.59792],[121.11458,24.60208],[121.11042,24.60625],[121.11042,24.61458],[121.10625,24.61875],[121.10625,24.62292],[121.11042,24.62708],[121.11875,24.62708],[121.12292,24.63125],[121.12292,24.63542],[121.12708,24.63958],[121.12708,24.65208],[121.12292,24.65625],[121.12292,24.66458],[121.11875,24.66875],[121.10625,24.66875],[121.10208,24.67292],[121.10208,24.68958],[121.10625,24.69375],[121.10208,24.69792],[121.10208,24.71458],[121.10625,24.71875],[121.10625,24.73125],[121.10625,24.73542],[121.10208,24.73958],[121.09792,24.73958],[121.09375,24.74375],[121.09375,24.74792],[121.08958,24.74792],[121.07292,24.76458],[121.06875,24.76458],[121.06458,24.76875],[121.06458,24.77292],[121.06458,24.77708],[121.04792,24.79375],[121.04375,24.79375],[121.03958,24.79792],[121.03542,24.79792],[121.03125,24.80208],[121.02708,24.80208],[121.02292,24.80625],[121.01875,24.81042],[121.01458,24.81042],[121.00625,24.81875],[121.00208,24.81875],[120.99792,24.82292],[120.98958,24.82292],[120.98542,24.82708],[120.96875,24.82708],[120.96458,24.83125],[120.96042,24.83125],[120.95625,24.83542],[120.95208,24.83542],[120.94792,24.83958],[120.93542,24.85208]],[[121.275,24.76875],[121.26875,24.76875],[121.25625,24.78125],[121.25208,24.78125],[121.24792,24.77708],[121.23958,24.77708],[121.23542,24.77292],[121.22708,24.77292],[121.22292,24.76875],[121.21458,24.76875],[121.20625,24.77708],[121.20208,24.77708],[121.19375,24.76875],[121.18542,24.76875],[121.18125,24.77292],[121.17708,24.77292],[121.17292,24.77708],[121.17708,24.78125],[121.17708,24.78542],[121.16042,24.80208],[121.14792,24.80208],[121.14375,24.80625],[121.13958,24.80625],[121.13542,24.81042],[121.13125,24.80625],[121.12292,24.81458],[121.11458,24.81458],[121.10625,24.81458],[121.10208,24.81875],[121.09375,24.81875],[121.08958,24.82292],[121.08125,24.82292],[121.07708,24.81875],[121.07292,24.82292],[121.06875,24.82292],[121.06042,24.83125],[121.04375,24.83125],[121.03958,24.83542],[121.03542,24.83542],[121.02292,24.84792],[121.01875,24.84792],[121.01458,24.85208],[120.99792,24.85208],[120.99375,24.85625],[120.96458,24.85625],[120.96042,24.85208],[120.95625,24.85625],[120.95208,24.85625],[120.94792,24.85208],[120.94375,24.85625]],[[121.0875,23.50208],[121.09375,23.50208],[121.10208,23.49375],[121.10625,23.49375],[121.10625,23.48542],[121.11042,23.48542],[121.11458,23.48125],[121.11875,23.48125],[121.11875,23.47708],[121.11458,23.47292],[121.11458,23.46875],[121.11875,23.46458],[121.11458,23.46042],[121.11458,23.45625],[121.11875,23.45208],[121.12292,23.45208],[121.12708,23.44792],[121.13125,23.44792],[121.13125,23.44375],[121.12708,23.43958],[121.12708,23.43542],[121.11875,23.42708],[121.12708,23.41875],[121.12708,23.41042],[121.12292,23.40625],[121.12292,23.39792],[121.12708,23.39375],[121.13125,23.38958],[121.13542,23.38958],[121.14375,23.38125],[121.14375,23.37708],[121.15625,23.37708],[121.16042,23.37708],[121.16458,23.37708],[121.16875,23.37708],[121.17292,23.37292],[121.17708,23.37292],[121.18125,23.36875],[121.18542,23.36875],[121.18958,23.36458],[121.19375,23.36042],[121.19792,23.36042],[121.20208,23.36042],[121.20625,23.35625],[121.21458,23.35625],[121.22292,23.34792],[121.22292,23.34375],[121.22708,23.33958],[121.22708,23.33542],[121.23125,23.33125],[121.24792,23.33125],[121.25625,23.32292],[121.25625,23.31875],[121.25208,23.31458],[121.25625,23.31042],[121.26042,23.30625],[121.26042,23.30208],[121.27292,23.28958],[121.27708,23.29375],[121.28542,23.29375],[121.29375,23.30208],[121.30208,23.30208],[121.31042,23.31042],[121.31458,23.31042],[121.31875,23.31458],[121.32292,23.31458],[121.32708,23.31458],[121.33125,23.31875],[121.33125,23.32292],[121.32708,23.32708],[121.32708,23.33125],[121.33125,23.33542],[121.33125,23.34375],[121.33542,23.34792],[121.33542,23.35625],[121.33958,23.36042],[121.34375,23.36042],[121.34792,23.36458],[121.34792,23.37708],[121.34375,23.38125],[121.34375,23.38958],[121.34792,23.39375],[121.35625,23.40208],[121.35625,23.40625],[121.35208,23.41042],[121.35208,23.41458],[121.36042,23.42292],[121.36042,23.42708],[121.36458,23.43125],[121.36458,23.44792],[121.36875,23.45208],[121.36875,23.45625],[121.37708,23.46458],[121.38958,23.47708],[121.39375,23.47708],[121.40625,23.48958],[121.41042,23.49375],[121.41458,23.49375],[121.41875,23.48958],[121.41458,23.48542],[121.41458,23.48125],[121.41875,23.47708],[121.42292,23.48125],[121.42708,23.48125],[121.43125,23.48542],[121.43125,23.49792],[121.43542,23.50208],[121.43958,23.50208],[121.44375,23.49792],[121.44375,23.49375],[121.44792,23.48958],[121.45208,23.49375],[121.45625,23.49375],[121.46042,23.48958],[121.46458,23.48958],[121.46875,23.48542],[121.46458,23.48125],[121.46458,23.47708],[121.46875,23.47292],[121.47292,23.47292],[121.47708,23.46875],[121.48958,23.46875],[121.49375,23.46458],[121.49792,23.46458],[121.50208,23.46042]],[[121.27917,24.44792],[121.28958,24.44792],[121.30208,24.46042],[121.30208,24.46875],[121.30625,24.47292],[121.30625,24.48125],[121.31458,24.48958],[121.31458,24.49375],[121.32292,24.50208],[121.32292,24.50625],[121.32708,24.51042],[121.33125,24.51042],[121.33125,24.51458],[121.33958,24.52292],[121.34792,24.52292],[121.35208,24.52708],[121.35208,24.54792],[121.34375,24.55625],[121.34375,24.56042],[121.34375,24.56458],[121.33542,24.57292],[121.33125,24.57292],[121.32708,24.57708],[121.32292,24.57708],[121.31458,24.58542],[121.31458,24.59375],[121.30625,24.60208],[121.30625,24.60625],[121.31042,24.61042],[121.31042,24.61458],[121.30625,24.61875],[121.30208,24.61875],[121.29792,24.62292],[121.28958,24.62292],[121.28958,24.62708],[121.28542,24.63125],[121.28542,24.63958],[121.28958,24.64375],[121.28958,24.65208],[121.29375,24.65625],[121.30208,24.65625],[121.31042,24.65625],[121.31458,24.65208],[121.31875,24.65208],[121.32708,24.66042],[121.33125,24.66458],[121.33542,24.66875],[121.33958,24.66875],[121.35625,24.66875],[121.36042,24.67292],[121.36875,24.67292],[121.37292,24.67708],[121.38125,24.67708],[121.38125,24.69792],[121.37708,24.70208],[121.36875,24.70208],[121.36458,24.70625],[121.36458,24.71042],[121.35625,24.71875],[121.35208,24.71875],[121.36042,24.72708],[121.36042,24.73125],[121.35208,24.73958],[121.35208,24.74375],[121.35625,24.74375],[121.36042,24.74792],[121.36042,24.75208],[121.35625,24.75625],[121.35625,24.76042],[121.35625,24.76458],[121.36458,24.77292],[121.36458,24.78542],[121.37292,24.79375],[121.36458,24.80208],[121.36042,24.80625],[121.35208,24.80625],[121.34792,24.81042],[121.34375,24.80625],[121.33958,24.80208],[121.33542,24.80208],[121.31875,24.80208],[121.31458,24.80625],[121.31042,24.80625],[121.30208,24.80625],[121.29792,24.80625],[121.29375,24.81042],[121.28958,24.81042],[121.28542,24.81042],[121.28125,24.81458],[121.26875,24.81458],[121.26042,24.80625],[121.25625,24.80625],[121.24792,24.81458],[121.25625,24.82292],[121.25208,24.82708],[121.26458,24.83958],[121.26458,24.84375],[121.27292,24.85208],[121.27292,24.86875],[121.28125,24.87708],[121.28125,24.88125],[121.28542,24.88542],[121.28542,24.88958],[121.29792,24.90208],[121.30625,24.91042],[121.31458,24.91042],[121.32708,24.92292],[121.33125,24.92292],[121.33542,24.92708],[121.33958,24.92708],[121.35208,24.93958],[121.35208,24.94375],[121.35625,24.94792],[121.36042,24.95208],[121.36875,24.95208],[121.37708,24.96042],[121.38125,24.96042],[121.38542,24.96458],[121.38958,24.96458],[121.39375,24.96875],[121.41042,24.96875],[121.41458,24.96875],[121.41875,24.96875],[121.43125,24.98125],[121.43542,24.98125],[121.43958,24.98542],[121.43542,24.98958],[121.43542,25.00625],[121.43958,25.01042],[121.43958,25.01458],[121.44375,25.01875],[121.44792,25.02292],[121.46042,25.03542],[121.46875,25.03542],[121.47292,25.03958],[121.48125,25.03958],[121.48542,25.04375],[121.48958,25.04792],[121.50208,25.06042],[121.50625,25.06458],[121.50625,25.07708],[121.50625,25.08125],[121.49375,25.09375],[121.48958,25.09375],[121.48542,25.09792],[121.47708,25.09792],[121.47292,25.10208],[121.46875,25.10625],[121.46875,25.11042],[121.46458,25.11458],[121.46042,25.11875],[121.46042,25.12708],[121.45625,25.13125],[121.45625,25.13958],[121.43958,25.15625],[121.43542,25.16042]],[[121.28958,23.87083],[121.28958,23.86458],[121.29375,23.86042],[121.28542,23.85208],[121.28542,23.84375],[121.26875,23.82708],[121.26875,23.81875],[121.27292,23.81458],[121.27292,23.81042],[121.26875,23.80625],[121.26875,23.79375],[121.27292,23.78958],[121.28542,23.78958],[121.28958,23.78542],[121.29375,23.78125],[121.29792,23.77708],[121.30208,23.77708],[121.30625,23.77292],[121.31875,23.77292],[121.32708,23.78125],[121.33125,23.78125],[121.33958,23.77292],[121.33958,23.76875],[121.34375,23.76458],[121.34792,23.76458],[121.36042,23.75208],[121.36458,23.74792],[121.37292,23.74792],[121.37708,23.74375],[121.37708,23.73958],[121.36875,23.73125],[121.36875,23.72708],[121.37292,23.72292],[121.37708,23.72292],[121.38125,23.71875],[121.38542,23.72292],[121.38958,23.71875],[121.40208,23.71875],[121.40625,23.72292],[121.42292,23.72292],[121.42708,23.71875],[121.43125,23.71875],[121.43542,23.71458],[121.43958,23.71458],[121.44375,23.71875],[121.44792,23.71458],[121.44792,23.71042],[121.45208,23.70625],[121.45208,23.70208],[121.46042,23.70208],[121.46458,23.70625],[121.46875,23.70625],[121.48125,23.71875],[121.48125,23.72292],[121.48958,23.73125],[121.48542,23.73542],[121.48542,23.73958],[121.48958,23.74375],[121.48958,23.75208],[121.49375,23.75625],[121.49792,23.76042],[121.49792,23.77292],[121.50625,23.78125],[121.51042,23.78125],[121.51875,23.78958],[121.51875,23.79792],[121.52292,23.80208],[121.52292,23.80625],[121.52708,23.81042],[121.52708,23.81875],[121.52292,23.82292],[121.52292,23.82708],[121.52708,23.83125],[121.52708,23.84375],[121.53125,23.84792],[121.53542,23.85208],[121.53958,23.85208],[121.53958,23.85625],[121.54375,23.86042],[121.54375,23.86458],[121.54792,23.86875],[121.54792,23.87292],[121.55208,23.87708],[121.56042,23.88542],[121.56458,23.88542],[121.56875,23.88958],[121.57292,23.88958],[121.58958,23.90625],[121.58958,23.91042],[121.59375,23.91458],[121.59375,23.91875],[121.59792,23.92292],[121.59792,23.92708],[121.59792,23.93125],[121.60625,23.93958],[121.61042,23.93958]],[[121.31458,24.13333],[121.31458,24.13958],[121.31875,24.14375],[121.31458,24.14792],[121.31875,24.15208],[121.31875,24.16042],[121.32708,24.16875],[121.32708,24.17292],[121.33542,24.17292],[121.35208,24.17292],[121.36042,24.17292],[121.36458,24.16875],[121.37292,24.16875],[121.37708,24.16458],[121.38125,24.16458],[121.38542,24.16042],[121.38958,24.16042],[121.39375,24.15625],[121.40208,24.15625],[121.41875,24.15625],[121.42292,24.16042],[121.43125,24.16875],[121.43542,24.16875],[121.43958,24.17292],[121.44375,24.17292],[121.44792,24.17708],[121.45208,24.17708],[121.45625,24.18125],[121.46042,24.18125],[121.46875,24.18125],[121.48125,24.18125],[121.48958,24.18125],[121.49375,24.18125],[121.49792,24.18125],[121.50208,24.17708],[121.52292,24.17708],[121.53125,24.16875],[121.56042,24.16875],[121.56458,24.17292],[121.57292,24.17292],[121.57708,24.17708],[121.58542,24.17708],[121.58958,24.17292],[121.59792,24.17292],[121.60208,24.16875],[121.61042,24.16875],[121.61458,24.16458],[121.61458,24.16042],[121.61875,24.16042],[121.62708,24.15208],[121.63125,24.15208],[121.63542,24.14792],[121.63958,24.14792],[121.64375,24.14375],[121.66458,24.14375]],[[121.41667,24.40208],[121.41042,24.40208],[121.40625,24.40625],[121.40208,24.40625],[121.39792,24.41042],[121.38125,24.41042],[121.38125,24.41875],[121.37708,24.42292],[121.38542,24.43125],[121.38542,24.43958],[121.38958,24.44375],[121.38958,24.44792],[121.39792,24.45625],[121.39792,24.46042],[121.40208,24.46042],[121.41042,24.46875],[121.41875,24.47708],[121.41875,24.48542],[121.42708,24.49375],[121.43125,24.49792],[121.43125,24.50625],[121.43542,24.51042],[121.44375,24.51875],[121.44375,24.52292],[121.44375,24.52708],[121.44792,24.53125],[121.44792,24.53542],[121.45208,24.53958],[121.45208,24.54375],[121.45625,24.54792],[121.45625,24.55208],[121.46042,24.55625],[121.46458,24.55625],[121.46875,24.55625],[121.47292,24.56042],[121.47292,24.57292],[121.47708,24.57708],[121.48125,24.58125],[121.48958,24.58125],[121.49375,24.57708],[121.49792,24.57708],[121.50208,24.58125],[121.50208,24.58542],[121.51458,24.59792],[121.51875,24.59792],[121.52708,24.60625],[121.54375,24.62292],[121.56042,24.63958],[121.56458,24.63958],[121.57292,24.64792],[121.57708,24.64792],[121.58125,24.65208],[121.58542,24.65625],[121.58958,24.65625],[121.59375,24.66042],[121.59792,24.66042],[121.60625,24.66875],[121.61042,24.67292],[121.61458,24.67292],[121.61875,24.67708],[121.62292,24.67708],[121.62708,24.68125],[121.63542,24.68958],[121.63958,24.68958],[121.64375,24.69375],[121.64792,24.69375],[121.65208,24.69792],[121.65625,24.69792],[121.66042,24.70208],[121.66875,24.70208],[121.67292,24.70625],[121.68958,24.70625],[121.69375,24.70208],[121.70625,24.70208],[121.71875,24.70208],[121.72292,24.70625],[121.73125,24.70625],[121.73542,24.70625],[121.74375,24.71458],[121.75208,24.71458],[121.75625,24.71458],[121.76042,24.71458],[121.78125,24.71458],[121.78542,24.71458],[121.80625,24.71458],[121.81042,24.71042],[121.82292,24.71042]],[[121.46667,24.37292],[121.47292,24.37292],[121.48125,24.38125],[121.48125,24.39375],[121.47708,24.39792],[121.48958,24.41042],[121.49375,24.41458],[121.49792,24.41458],[121.51458,24.41458],[121.51875,24.41042],[121.52708,24.41042],[121.53125,24.41458],[121.53125,24.41875],[121.53542,24.42292],[121.54792,24.41042],[121.55208,24.40625],[121.55625,24.40625],[121.55625,24.40208],[121.56042,24.39792],[121.56875,24.39792],[121.57292,24.39375],[121.58125,24.39375],[121.58542,24.39792],[121.58958,24.40208],[121.59375,24.40208],[121.59792,24.40625],[121.60625,24.40625],[121.61042,24.40208],[121.61458,24.40625],[121.61875,24.40625],[121.62292,24.40208],[121.62708,24.40208],[121.63125,24.39792],[121.63125,24.38542],[121.63542,24.38125],[121.63958,24.38542],[121.64375,24.38125],[121.64375,24.37292],[121.65625,24.36042],[121.65625,24.35625],[121.66042,24.35208],[121.66458,24.35208],[121.66875,24.34792],[121.67708,24.33958],[121.68542,24.33958],[121.68958,24.33542],[121.69375,24.33542],[121.69792,24.33542],[121.70625,24.32708],[121.72708,24.32708],[121.73125,24.32292],[121.74375,24.32292],[121.74792,24.32292],[121.75208,24.31875],[121.76042,24.31875],[121.76458,24.32292],[121.77292,24.32292]]]}}]}
